STARLINK-30760          
1 58187U 23167N   26068.52874204 -.00001663  00000+0 -52348-4 0  9995
2 58187  42.9998 144.0264 0001007 208.5156 151.5640 15.26739238130965
KUIPER-00209            
1 67776U 26030N   26068.61786546  .00035298  00000+0  11963-2 0  9997
2 67776  51.8838 220.0775 0012191  59.1967 301.0215 15.30161950  5077
